{"type": "FeatureCollection", "features": [{"type": "Feature", "properties": {"name": "Kenya border"}, "geometry": {"type": "MultiLineString", "coordinates": [[[34.94221496604791, 1.576222181008916], [34.92031860382059, 1.563332914882153], [34.910045623806525, 1.564167976770761], [34.90227508562674, 1.552404284130432], [34.88680648832883, 1.555817246368861], [34.88328552290858, 1.540967344867113], [34.88052749644686, 1.53602957760296], [34.87784194904674, 1.532979727432519], [34.863571166875886, 1.526625870587509], [34.86030197115912, 1.514716863692342], [34.8604125976633, 1.45716917491751], [34.858417511059315, 1.452630757903194], [34.85282516504935, 1.450379729640872], [34.84236907857019, 1.453429579811313], [34.84048080444563, 1.452775955246182], [34.79727172830769, 1.425327420624001], [34.78855895962835, 1.416323065657025], [34.78888702421682, 1.409533500770465], [34.80398941038305, 1.373371004967964], [34.79520416264205, 1.36567378042065], [34.79324340855652, 1.3608086109287], [34.82922363156541, 1.311321258769112], [34.83137130704023, 1.303212642949177], [34.82925033603425, 1.295550822912219], [34.830333709733, 1.276077270249857], [34.83221054088381, 1.271594405257645], [34.828315733584304, 1.266254901842274], [34.82092285130858, 1.262235641861423], [34.818397521728286, 1.248018622061807], [34.814098358552485, 1.244858741637643], [34.81180191003017, 1.241080165417372], [34.81147003141689, 1.237206458910975], [34.80518722640943, 1.2282977099714], [34.794178009207826, 1.219474673617356], [34.78741073581688, 1.219293833443714], [34.78467559800049, 1.221587657744237], [34.779861449746136, 1.219817281142639], [34.77513122532582, 1.22083568601812], [34.771400451669535, 1.217199921239398], [34.768135070876895, 1.216505051067315], [34.75807571402305, 1.219293833443714], [34.7501831045667, 1.218446731431584], [34.74465560956878, 1.22041690321754], [34.740020751956195, 1.218656182636778], [34.71216964841062, 1.215191602910181], [34.702758789086886, 1.215334415251107], [34.697513579588076, 1.212945461563834], [34.67067337067954, 1.207710623946184], [34.663600921345505, 1.19163501304547], [34.65837478556796, 1.188256144105821], [34.65695571923112, 1.184705972302822], [34.644184112307016, 1.177186846795564], [34.63844680817368, 1.17201864714292], [34.62154006991835, 1.167507290728906], [34.61582183860702, 1.160987496375924], [34.611663818630404, 1.158941149314614], [34.59859466561136, 1.15586686096691], [34.58980941787041, 1.151955128426494], [34.580310821587204, 1.150267600969073], [34.57745361339357, 1.100133776552582], [34.52774429326456, 1.121568560840444], [34.52838516274511, 1.109115242874225], [34.52735519438676, 1.105441451162108], [34.521873473981714, 1.098778963178631], [34.51874160743927, 1.088604331224929], [34.515155791906295, 1.082332134620344], [34.503494262250456, 1.069816112323792], [34.503341675178206, 1.066922665048992], [34.49961471644605, 1.06088161489464], [34.49963760419212, 1.057277918141438], [34.497127533409014, 1.054461599423348], [34.4936408996079, 1.044377923102729], [34.48793029814482, 1.010644793822223], [34.48654174760361, 0.994086980829536], [34.48813247743192, 0.983722030747174], [34.4800224307906, 0.95273196680688], [34.47908782923997, 0.9395973089687], [34.469276428064745, 0.920818625579159], [34.465248108313574, 0.916468978060948], [34.464145659994244, 0.912566661422318], [34.45911025963085, 0.909416258053909], [34.45542907729015, 0.903296290591413], [34.44999313327651, 0.901211858140812], [34.45125961344047, 0.891227662126937], [34.44660568210662, 0.879587292619533], [34.447002410832624, 0.869174778293427], [34.44554901107807, 0.863644957648717], [34.43993377642272, 0.857781946279829], [34.423305511440276, 0.852899312853026], [34.42041015580412, 0.8504817481342], [34.4174766536247, 0.843695938816552], [34.413764953689736, 0.843258143448622], [34.414318084412116, 0.836024582368623], [34.40589523287872, 0.829028963915619], [34.41140365595402, 0.821938156720591], [34.41221237220327, 0.818483173659558], [34.41040420518999, 0.815894365432655], [34.41188049358993, 0.811392426719181], [34.40132522627823, 0.807708978986227], [34.39600372279364, 0.803911388399911], [34.39183425894396, 0.806138574735485], [34.38508605927427, 0.80456811202879], [34.383251189590794, 0.801874577749629], [34.382347107433134, 0.794764757087933], [34.37971878029754, 0.798933565331822], [34.37559890776345, 0.797134697308479], [34.3703460693157, 0.784989893568763], [34.361064911116785, 0.778489232292259], [34.357868193562354, 0.778375029184303], [34.35224151593326, 0.775414943944554], [34.34639740021987, 0.775047659921597], [34.333499908893714, 0.769612967764317], [34.32079696610714, 0.767928362204202], [34.31317138694999, 0.763959407600623], [34.31348419184201, 0.759781062945763], [34.31000137296502, 0.750681996776791], [34.309345245586655, 0.738794207586636], [34.30739593537419, 0.731893777875598], [34.30909728990804, 0.726725578222897], [34.306945800408414, 0.720634162436681], [34.31280899074238, 0.697315454044997], [34.310554504586776, 0.695821165714278], [34.30613708505848, 0.696297049169516], [34.30192184481734, 0.693356036751766], [34.299007414560606, 0.693032443592472], [34.291297911569416, 0.685322940601282], [34.28657913192143, 0.682924449603718], [34.282268523973244, 0.683276652895245], [34.2782707218164, 0.680897176263727], [34.27787017816627, 0.676880657416461], [34.280105590600556, 0.667486548865213], [34.27975463826601, 0.659025191959074], [34.27759551981745, 0.657892526419005], [34.27848053005249, 0.649012386712343], [34.275566100695016, 0.642292797174889], [34.2631950374211, 0.639456450554803], [34.25160980265031, 0.632289529238449], [34.24082565338125, 0.63563030919147], [34.23596191381131, 0.629510342628237], [34.232440948391115, 0.630481123904815], [34.22936630211319, 0.629063009950016], [34.22387695275921, 0.632156312663767], [34.22040939357868, 0.632537007377039], [34.21514892618205, 0.62548428737], [34.207695006919096, 0.628406286321081], [34.20425033458531, 0.625322461562405], [34.20031738344056, 0.628225446147496], [34.19622421267735, 0.625217795764684], [34.19547271759188, 0.621610522407707], [34.19193267755111, 0.622029304308967], [34.191104887580536, 0.616004525588437], [34.185794830666964, 0.612825572342331], [34.18673706026715, 0.609046935867468], [34.18580245961584, 0.606876910441088], [34.17681121856293, 0.608104705367907], [34.17211532576175, 0.603793084783092], [34.162284850865205, 0.599081755118959], [34.151683807162044, 0.587812661725025], [34.14849472035513, 0.588126719372667], [34.144191742255146, 0.584605157701901], [34.13764190694849, 0.585842430583739], [34.12706756591547, 0.557926595635934], [34.12610626259402, 0.537320494345408], [34.1171073916928, 0.523300408986756], [34.122425079354, 0.51996654302161], [34.123367309853506, 0.517020345112883], [34.117134094362996, 0.509910523551866], [34.118869781415356, 0.49498277943178], [34.118125915278824, 0.490106940383043], [34.120807647754816, 0.480405212430639], [34.11130142342199, 0.475306601418595], [34.101310729806414, 0.465567051578205], [34.09436035174889, 0.461741298722018], [34.08977127142708, 0.456305086710415], [34.09163284288144, 0.442290783093199], [34.0899162295504, 0.425796062038671], [34.10013580332469, 0.412639588446325], [34.10892105106569, 0.378244609401236], [34.10820007357461, 0.369459807724013], [34.101291656085095, 0.356974989204446], [34.10034942558559, 0.349865138865141], [34.08265686062566, 0.335445612425133], [34.08127593993271, 0.331895470299742], [34.072776794413585, 0.326022953096867], [34.05894851556161, 0.324680923585788], [34.06010818504478, 0.312345802616733], [34.05440902655539, 0.30917635520467], [34.05022811883265, 0.304864764297463], [34.049156189006965, 0.301124274365804], [34.04986953844849, 0.294756829663982], [34.04612731912056, 0.292539179739379], [34.04241561918553, 0.292805671344695], [34.0407028198793, 0.289531529356623], [34.0418930051581, 0.287294833589726], [34.04014968915686, 0.280889332276899], [34.04317855814401, 0.279233217239209], [34.04233169535149, 0.276787132320351], [34.03284072891654, 0.269277572901728], [34.02593994127534, 0.269077688684433], [34.02546310543801, 0.265270560787826], [34.02250289878981, 0.261682330575127], [34.02245712239835, 0.255105495822022], [34.01406097443447, 0.24891889129384], [34.01278686532163, 0.245797037803072], [34.00505828860918, 0.240752577669355], [34.00408554141467, 0.237182780860678], [34.00536346455232, 0.235782086773952], [33.91391754176118, 0.111395418363941], [33.91181945760195, 0.100251190440133], [33.98221969588229, -0.129406451946124], [33.928096771149114, -0.454822927336181], [33.91997909555886, -0.561803161786429]]]}}]}